SES-1                   
1 36516U 10016A   26161.24864824 -.00000097  00000+0  00000+0 0  9998
2 36516   0.0121 330.8096 0002673 109.8019 166.5224  1.00271384 58962
ASTRA 3B                
1 36581U 10021A   26161.27329300  .00000155  00000+0  00000+0 0  9998
2 36581   1.4527  83.6394 0004490 353.8219 303.0796  1.00275169 58793
COMSATBW-2              
1 36582U 10021B   26161.27121299  .00000105  00000+0  00000+0 0  9991
2 36582   0.0270  45.1236 0002627  48.9183 275.4206  1.00270362 58882
BEIDOU-2 G3             
1 36590U 10024A   26160.85662627 -.00000121  00000+0  00000+0 0  9990
2 36590   4.4973  61.5460 0008276 351.4089 233.3626  1.00272605 58693
BADR-5                  
1 36592U 10025A   26161.20333807  .00000171  00000+0  00000+0 0  9992
2 36592   0.0675 112.3566 0003022  80.5388 169.3962  1.00266778 53144
COMS 1                  
1 36744U 10032A   26154.99142485 -.00000334  00000+0  00000+0 0  9999
2 36744   4.7750  75.5286 0001016   4.5847 297.3769  1.00270643 50953
ARABSAT-5A              
1 36745U 10032B   26161.27467966  .00000171  00000+0  00000+0 0  9991
2 36745   0.0766  54.3846 0005558  45.2537 288.3542  1.00270658 58571
ECHOSTAR 15             
1 36792U 10034A   26161.24509490  .00000017  00000+0  00000+0 0  9990
2 36792   0.0173  34.2090 0001710  47.6658 146.1558  1.00271724 58257
BEIDOU-2 IGSO-1         
1 36828U 10036A   26160.93350646 -.00000029  00000+0  00000+0 0  9998
2 36828  54.3013 163.0252 0059281 225.1529 313.8504  1.00274536 58022
NILESAT 201             
1 36830U 10037A   26161.26722630 -.00000040  00000+0  00000+0 0  9998
2 36830   0.0432 144.0368 0004398 325.2210 238.5873  1.00271861 58304
RASCOM-QAF 1R           
1 36831U 10037B   26161.26921964  .00000036  00000+0  00000+0 0  9994
2 36831   0.0069  29.5018 0006770  46.6764 282.2604  1.00271171 58238
AEHF-1 (USA 214)        
1 36868U 10039A   26161.00322488  .00000162  00000+0  00000+0 0  9994
2 36868   8.2005  68.1408 0003960   6.0643 215.2467  1.00271280 53581
XM-5                    
1 37185U 10053A   26161.24578824 -.00000005  00000+0  00000+0 0  9993
2 37185   0.0654 273.5303 0002972 284.6282  33.7382  1.00269710 57415
BSAT-3B                 
1 37207U 10056B   26160.50619905 -.00000333  00000+0  00000+0 0  9999
2 37207   0.0791 249.8713 0001321 296.9420   3.1610  1.00271760 52025
BEIDOU-2 G4             
1 37210U 10057A   26161.15772545 -.00000096  00000+0  00000+0 0  9992
2 37210   3.6284  68.9893 0004936 199.2959 207.0346  1.00271667 57225
SKYTERRA 1              
1 37218U 10061A   26161.24856157 -.00000102  00000+0  00000+0 0  9995
2 37218   5.1097  50.8576 0002523  15.7006 180.1894  1.00265424 57127
HYLAS 1                 
1 37237U 10065A   26160.98615956  .00000105  00000+0  00000+0 0  9992
2 37237   5.6243  73.1053 0000941 313.3129 240.7619  1.00272921  6817
INTELSAT 17 (IS-17)     
1 37238U 10065B   26161.20650044  .00000016  00000+0  00000+0 0  9997
2 37238   0.0101 119.8670 0002562 329.9016 309.1443  1.00272773 53173
BEIDOU-2 IGSO-2         
1 37256U 10068A   26160.74236155 -.00000225  00000+0  00000+0 0  9994
2 37256  47.5626 271.9271 0055147 212.2269 148.8480  1.00285942 56724
EUTELSAT KA-SAT 9A      
1 37258U 10069A   26161.16086221  .00000079  00000+0  00000+0 0  9997
2 37258   0.0606  10.2646 0004024 122.2715 192.9096  1.00272454 43938
HISPASAT 30W-5          
1 37264U 10070A   26161.26271961 -.00000199  00000+0  00000+0 0  9998
2 37264   0.0320 146.8079 0005129 316.9789 219.4190  1.00268664 53113
KOREASAT 6              
1 37265U 10070B   26161.21433981 -.00000094  00000+0  00000+0 0  9990
2 37265   0.0180 317.8858 0002172 129.6097  48.1375  1.00271268 56703
BEIDOU-2 IGSO-3         
1 37384U 11013A   26160.59429605 -.00000192  00000+0  00000+0 0  9997
2 37384  62.3960  40.2253 0034379 184.4451 355.1654  1.00270057 55586
INTELSAT 28 (IS-28)     
1 37392U 11016A   26161.26237294 -.00000208  00000+0  00000+0 0  9993
2 37392   1.7874  82.7063 0003732   1.4267 237.2442  1.00271780 53215
YAHSAT 1A               
1 37393U 11016B   26160.92025954  .00000000  00000+0  00000+0 0  9993
2 37393   0.0174 353.2749 0002773  97.6716 191.1113  1.00271196 42333
SBIRS GEO-1 (USA 230)   
1 37481U 11019A   26160.73828483  .00000115  00000+0  00000+0 0  9998
2 37481   4.5203  53.1313 0002174  14.9566 147.5992  1.00272585 55322
TELSTAR 14R             
1 37602U 11021A   26161.04223795 -.00000262  00000+0  00000+0 0  9990
2 37602   0.0265  68.0297 0002303 354.4143 148.1812  1.00271201 55769
GSAT-8                  
1 37605U 11022A   26161.20827809  .00000102  00000+0  00000+0 0  9990
2 37605   2.1121  81.9066 0002274 207.7408  98.9733  1.00271389 53146
ST-2                    
1 37606U 11022B   26161.14345918 -.00000193  00000+0  00000+0 0  9991
2 37606   0.0139 285.2545 0001600 168.9865 303.9223  1.00268035 55207
ZHONGXING-10            
1 37677U 11026A   26161.14302584 -.00000171  00000+0  00000+0 0  9991
2 37677   1.0275  84.2902 0003598   0.0991 311.1383  1.00270284 54920
SES-3                   
1 37748U 11035A   26161.25480157 -.00000084  00000+0  00000+0 0  9998
2 37748   1.3079  83.1617 0002565 351.3488 172.8258  1.00270641 54527
KAZSAT-2                
1 37749U 11035B   26161.07192175 -.00000180  00000+0  00000+0 0  9996
2 37749   0.0339 246.8817 0001404 262.6053 221.3359  1.00269869 53325
